[{"OBJECT_NAME":"STARLINK-4406","OBJECT_ID":"2022-105V","EPOCH":"2026-03-09T16:11:57.725088","MEAN_MOTION":15.05688645,"ECCENTRICITY":0.00032736,"INCLINATION":97.5995,"RA_OF_ASC_NODE":311.2806,"ARG_OF_PERICENTER":72.4901,"MEAN_ANOMALY":287.6683,"EPHEMERIS_TYPE":0,"CLASSIFICATION_TYPE":"U","NORAD_CAT_ID":53667,"ELEMENT_SET_NO":999,"REV_AT_EPOCH":19330,"BSTAR":0.00038130822,"MEAN_MOTION_DOT":5.451e-5,"MEAN_MOTION_DDOT":0},{"OBJECT_NAME":"FENGYUN 1C DEB","OBJECT_ID":"1999-025AWA","EPOCH":"2026-03-09T00:03:06.465024","MEAN_MOTION":14.61941395,"ECCENTRICITY":0.02164637,"INCLINATION":98.0221,"RA_OF_ASC_NODE":81.8458,"ARG_OF_PERICENTER":98.975,"MEAN_ANOMALY":263.602,"EPHEMERIS_TYPE":0,"CLASSIFICATION_TYPE":"U","NORAD_CAT_ID":30840,"ELEMENT_SET_NO":999,"REV_AT_EPOCH":74391,"BSTAR":0.00079130371,"MEAN_MOTION_DOT":5.495e-5,"MEAN_MOTION_DDOT":0}]
